

*******************************************************************************
Ephemeris / WWW_USER Tue May 30 06:41:52 2023 Pasadena, USA      / Horizons    
*******************************************************************************
Target body name: Jupiter (599)                   {source: jup365_merged}
Center body name: Sun (10)                        {source: jup365_merged}
Center-site name: BODYCENTRIC
*******************************************************************************
Start time      : A.D. 1980-Jan-01 00:00:00.0000 UT      
Stop  time      : A.D. 2023-Jan-01 00:00:00.0000 UT      
Step-size       : 1440 minutes
*******************************************************************************
Target pole/equ : IAU_JUPITER                     {West-longitude positive}
Target radii    : 71492.0, 71492.0, 66854.0 km    {Equator_a, b, pole_c}       
Center geodetic : 0.0, 0.0, -6.96E5               {E-lon(deg),Lat(deg),Alt(km)}
Center cylindric: 0.0, 0.0, 0.0                   {E-lon(deg),Dxy(km),Dz(km)}
Center pole/equ : IAU_SUN                         {East-longitude positive}
Center radii    : 696000.0, 696000.0, 696000.0 km {Equator_a, b, pole_c}       
Target primary  : Sun
Vis. interferer : None
Rel. light bend : Sun                             {source: jup365_merged}
Rel. lght bnd GM: 1.3271E+11 km^3/s^2                                          
Atmos refraction: NO (AIRLESS)
RA format       : DEG
Time format     : CAL 
Calendar mode   : Gregorian
EOP file        : eop.230528.p230821                                           
EOP coverage    : DATA-BASED 1962-JAN-20 TO 2023-MAY-28. PREDICTS-> 2023-AUG-20
Units conversion: 1 au= 149597870.700 km, c= 299792.458 km/s, 1 day= 86400.0 s 
Table cut-offs 1: Elevation (-90.0deg=NO ),Airmass     n.a.    , Daylight (NO )
Table cut-offs 2: Solar elongation (  0.0,180.0=NO ),Local Hour Angle( 0.0=NO )
Table cut-offs 3: RA/DEC angular rate (     0.0=NO )                           
Table format    : Comma Separated Values (spreadsheet)
*******************************************************************************
 Date__(UT)__HR:MN, , , R.A._(ICRF), DEC_(ICRF),             delta,     deldot,
*******************************************************************************
$$SOE
 2016-Jan-04 00:00, , ,   164.91791,    7.69051,  5.41644514589315,  0.3326180,
 2016-Jan-05 00:00, , ,   164.98955,    7.66183,  5.41663621320020,  0.3296665,
 2016-Jan-06 00:00, , ,   165.06117,    7.63314,  5.41682687554674,  0.3297255,
 2016-Jan-07 00:00, , ,   165.13278,    7.60445,  5.41701662827804,  0.3284956,
 2016-Jan-08 00:00, , ,   165.20437,    7.57574,  5.41720631500151,  0.3272205,
 2016-Jan-09 00:00, , ,   165.27594,    7.54702,  5.41739514795697,  0.3279138,
 2016-Jan-10 00:00, , ,   165.34750,    7.51829,  5.41758444997007,  0.3268353,
 2016-Jan-11 00:00, , ,   165.41905,    7.48956,  5.41777337694263,  0.3273636,
 2016-Jan-12 00:00, , ,   165.49059,    7.46081,  5.41796137911727,  0.3239558,
 2016-Jan-13 00:00, , ,   165.56212,    7.43205,  5.41814866584152,  0.3240155,
 2016-Jan-14 00:00, , ,   165.63363,    7.40328,  5.41833499712749,  0.3222528,
 2016-Jan-15 00:00, , ,   165.70512,    7.37451,  5.41852119063862,  0.3213582,
 2016-Jan-16 00:00, , ,   165.77659,    7.34573,  5.41870646638852,  0.3216328,
 2016-Jan-17 00:00, , ,   165.84805,    7.31693,  5.41889236663108,  0.3211440,
 2016-Jan-18 00:00, , ,   165.91949,    7.28813,  5.41907801547604,  0.3220305,
 2016-Jan-19 00:00, , ,   165.99093,    7.25932,  5.41926314200117,  0.3189493,
 2016-Jan-20 00:00, , ,   166.06235,    7.23050,  5.41944757877678,  0.3194511,
 2016-Jan-21 00:00, , ,   166.13375,    7.20167,  5.41963130819321,  0.3175884,
 2016-Jan-22 00:00, , ,   166.20514,    7.17283,  5.41981494736221,  0.3172239,
 2016-Jan-23 00:00, , ,   166.27652,    7.14398,  5.41999766543695,  0.3169451,
 2016-Jan-24 00:00, , ,   166.34788,    7.11513,  5.42018099443697,  0.3167755,
 2016-Jan-25 00:00, , ,   166.41923,    7.08626,  5.42036396944893,  0.3174078,
 2016-Jan-26 00:00, , ,   166.49057,    7.05738,  5.42054649861710,  0.3141906,
 2016-Jan-27 00:00, , ,   166.56190,    7.02850,  5.42072800157578,  0.3143795,
 2016-Jan-28 00:00, , ,   166.63321,    6.99960,  5.42090870713334,  0.3119227,
 2016-Jan-29 00:00, , ,   166.70451,    6.97070,  5.42108904227082,  0.3116125,
 2016-Jan-30 00:00, , ,   166.77579,    6.94179,  5.42126829816438,  0.3105360,
 2016-Jan-31 00:00, , ,   166.84706,    6.91287,  5.42144802862439,  0.3106992,
 2016-Feb-01 00:00, , ,   166.91831,    6.88394,  5.42162738828689,  0.3112132,
 2016-Feb-02 00:00, , ,   166.98956,    6.85500,  5.42180656193467,  0.3084421,
 2016-Feb-03 00:00, , ,   167.06079,    6.82606,  5.42198468806745,  0.3087835,
 2016-Feb-04 00:00, , ,   167.13200,    6.79710,  5.42216229556470,  0.3064853,
 2016-Feb-05 00:00, , ,   167.20320,    6.76814,  5.42233960017800,  0.3067834,
 2016-Feb-06 00:00, , ,   167.27439,    6.73917,  5.42251603758891,  0.3054478,
 2016-Feb-07 00:00, , ,   167.34556,    6.71020,  5.42269300338646,  0.3062473,
 2016-Feb-08 00:00, , ,   167.41671,    6.68121,  5.42286972314764,  0.3066579,
 2016-Feb-09 00:00, , ,   167.48787,    6.65222,  5.42304647502170,  0.3043080,
 2016-Feb-10 00:00, , ,   167.55900,    6.62321,  5.42322203423851,  0.3043199,
 2016-Feb-11 00:00, , ,   167.63013,    6.59420,  5.42339708807404,  0.3017610,
 2016-Feb-12 00:00, , ,   167.70125,    6.56517,  5.42357155226843,  0.3019480,
 2016-Feb-13 00:00, , ,   167.77235,    6.53614,  5.42374502805246,  0.2997882,
 2016-Feb-14 00:00, , ,   167.84343,    6.50711,  5.42391869289886,  0.3006212,
 2016-Feb-15 00:00, , ,   167.91450,    6.47806,  5.42409198231414,  0.3004853,
 2016-Feb-16 00:00, , ,   167.98556,    6.44901,  5.42426532032845,  0.2984741,
 2016-Feb-17 00:00, , ,   168.05661,    6.41995,  5.42443732189984,  0.2981162,
 2016-Feb-18 00:00, , ,   168.12765,    6.39088,  5.42460892157763,  0.2957045,
 2016-Feb-19 00:00, , ,   168.19867,    6.36180,  5.42477986658959,  0.2961550,
 2016-Feb-20 00:00, , ,   168.26968,    6.33271,  5.42495004850744,  0.2938791,
 2016-Feb-21 00:00, , ,   168.34067,    6.30363,  5.42512040866356,  0.2953127,
 2016-Feb-22 00:00, , ,   168.41165,    6.27453,  5.42529064911615,  0.2952099,
 2016-Feb-23 00:00, , ,   168.48262,    6.24542,  5.42546122555618,  0.2940673,
 2016-Feb-24 00:00, , ,   168.55358,    6.21631,  5.42563058025104,  0.2935311,
 2016-Feb-25 00:00, , ,   168.62453,    6.18718,  5.42579970278545,  0.2914074,
 2016-Feb-26 00:00, , ,   168.69546,    6.15805,  5.42596805993846,  0.2917978,
 2016-Feb-27 00:00, , ,   168.76639,    6.12891,  5.42613571458399,  0.2891115,
 2016-Feb-28 00:00, , ,   168.83729,    6.09977,  5.42630322069573,  0.2904705,
 2016-Feb-29 00:00, , ,   168.90819,    6.07061,  5.42647052696027,  0.2897736,
 2016-Mar-01 00:00, , ,   168.97908,    6.04145,  5.42663804523662,  0.2889055,
 2016-Mar-02 00:00, , ,   169.04996,    6.01228,  5.42680417255014,  0.2876273,
 2016-Mar-03 00:00, , ,   169.12083,    5.98310,  5.42696995763230,  0.2855420,
 2016-Mar-04 00:00, , ,   169.19168,    5.95392,  5.42713474687774,  0.2856367,
 2016-Mar-05 00:00, , ,   169.26252,    5.92473,  5.42729890013000,  0.2827946,
 2016-Mar-06 00:00, , ,   169.33334,    5.89553,  5.42746269650437,  0.2842941,
 2016-Mar-07 00:00, , ,   169.40415,    5.86633,  5.42762647495538,  0.2835634,
 2016-Mar-08 00:00, , ,   169.47495,    5.83712,  5.42779063360343,  0.2835848,
 2016-Mar-09 00:00, , ,   169.54574,    5.80790,  5.42795365442048,  0.2821996,
 2016-Mar-10 00:00, , ,   169.61653,    5.77868,  5.42811654635111,  0.2807959,
 2016-Mar-11 00:00, , ,   169.68729,    5.74944,  5.42827852713473,  0.2809123,
 2016-Mar-12 00:00, , ,   169.75805,    5.72020,  5.42844011798310,  0.2782630,
 2016-Mar-13 00:00, , ,   169.82879,    5.69096,  5.42860119272219,  0.2797343,
 2016-Mar-14 00:00, , ,   169.89952,    5.66171,  5.42876234651747,  0.2787670,
 2016-Mar-15 00:00, , ,   169.97024,    5.63245,  5.42892379580368,  0.2791661,
 2016-Mar-16 00:00, , ,   170.04096,    5.60318,  5.42908410041484,  0.2771071,
 2016-Mar-17 00:00, , ,   170.11166,    5.57390,  5.42924409419303,  0.2757847,
 2016-Mar-18 00:00, , ,   170.18236,    5.54462,  5.42940292983532,  0.2752371,
 2016-Mar-19 00:00, , ,   170.25304,    5.51533,  5.42956129039269,  0.2724324,
 2016-Mar-20 00:00, , ,   170.32370,    5.48604,  5.42971876028135,  0.2734447,
 2016-Mar-21 00:00, , ,   170.39436,    5.45674,  5.42987629482147,  0.2722580,
 2016-Mar-22 00:00, , ,   170.46500,    5.42743,  5.43003403884816,  0.2731278,
 2016-Mar-23 00:00, , ,   170.53564,    5.39812,  5.43019084046133,  0.2708489,
 2016-Mar-24 00:00, , ,   170.60626,    5.36880,  5.43034739297574,  0.2701723,
 2016-Mar-25 00:00, , ,   170.67687,    5.33947,  5.43050292617218,  0.2695448,
 2016-Mar-26 00:00, , ,   170.74748,    5.31014,  5.43065824860304,  0.2673372,
 2016-Mar-27 00:00, , ,   170.81806,    5.28080,  5.43081267307136,  0.2683020,
 2016-Mar-28 00:00, , ,   170.88863,    5.25146,  5.43096739677320,  0.2673541,
 2016-Mar-29 00:00, , ,   170.95919,    5.22211,  5.43112236824979,  0.2687313,
 2016-Mar-30 00:00, , ,   171.02976,    5.19275,  5.43127664968760,  0.2662320,
 2016-Mar-31 00:00, , ,   171.10030,    5.16339,  5.43143059395186,  0.2658586,
 2016-Apr-01 00:00, , ,   171.17085,    5.13401,  5.43158345601843,  0.2646250,
 2016-Apr-02 00:00, , ,   171.24138,    5.10464,  5.43173601587290,  0.2624924,
 2016-Apr-03 00:00, , ,   171.31190,    5.07525,  5.43188733834338,  0.2626590,
 2016-Apr-04 00:00, , ,   171.38240,    5.04587,  5.43203881154951,  0.2614581,
 2016-Apr-05 00:00, , ,   171.45289,    5.01647,  5.43219025454091,  0.2627710,
 2016-Apr-06 00:00, , ,   171.52338,    4.98707,  5.43234108429940,  0.2599295,
 2016-Apr-07 00:00, , ,   171.59386,    4.95766,  5.43249139555769,  0.2598023,
 2016-Apr-08 00:00, , ,   171.66433,    4.92825,  5.43264066630456,  0.2582061,
